CCSDS_OMM_VERS = 2.0
CREATION_DATE  = 
ORIGINATOR     = 

OBJECT_NAME    = HULIANWANG DIGUI-138
OBJECT_ID      = 2026-007B
CENTER_NAME    = EARTH
REF_FRAME      = TEME
TIME_SYSTEM    = UTC
MEAN_ELEMENT_THEORY = SGP/SGP4

EPOCH          = 2026-01-31T00:28:49.899936
MEAN_MOTION    = 13.83486548
ECCENTRICITY   = .0000447
INCLINATION    = 50.0044
RA_OF_ASC_NODE = 225.3672
ARG_OF_PERICENTER = 36.4558
MEAN_ANOMALY   = 323.6368

EPHEMERIS_TYPE = 0
CLASSIFICATION_TYPE = U
NORAD_CAT_ID   = 67436
ELEMENT_SET_NO = 999
REV_AT_EPOCH   = 242
BSTAR          = .1607E-3
MEAN_MOTION_DOT = .34E-6
MEAN_MOTION_DDOT = 0

CCSDS_OMM_VERS = 2.0
CREATION_DATE  = 
ORIGINATOR     = 

OBJECT_NAME    = HULIANWANG DIGUI-139
OBJECT_ID      = 2026-007C
CENTER_NAME    = EARTH
REF_FRAME      = TEME
TIME_SYSTEM    = UTC
MEAN_ELEMENT_THEORY = SGP/SGP4

EPOCH          = 2026-01-31T07:21:36.772704
MEAN_MOTION    = 13.83662691
ECCENTRICITY   = .0000504
INCLINATION    = 50.0008
RA_OF_ASC_NODE = 224.2110
ARG_OF_PERICENTER = 290.1254
MEAN_ANOMALY   = 69.9587

EPHEMERIS_TYPE = 0
CLASSIFICATION_TYPE = U
NORAD_CAT_ID   = 67437
ELEMENT_SET_NO = 999
REV_AT_EPOCH   = 246
BSTAR          = .18421E-3
MEAN_MOTION_DOT = .61E-6
MEAN_MOTION_DDOT = 0

CCSDS_OMM_VERS = 2.0
CREATION_DATE  = 
ORIGINATOR     = 

OBJECT_NAME    = HULIANWANG DIGUI-140
OBJECT_ID      = 2026-007D
CENTER_NAME    = EARTH
REF_FRAME      = TEME
TIME_SYSTEM    = UTC
MEAN_ELEMENT_THEORY = SGP/SGP4

EPOCH          = 2026-01-31T07:28:18.556896
MEAN_MOTION    = 13.83290804
ECCENTRICITY   = .0000232
INCLINATION    = 50.0043
RA_OF_ASC_NODE = 224.2407
ARG_OF_PERICENTER = 315.7357
MEAN_ANOMALY   = 44.3520

EPHEMERIS_TYPE = 0
CLASSIFICATION_TYPE = U
NORAD_CAT_ID   = 67438
ELEMENT_SET_NO = 999
REV_AT_EPOCH   = 246
BSTAR          = .17736E-3
MEAN_MOTION_DOT = .52E-6
MEAN_MOTION_DDOT = 0

CCSDS_OMM_VERS = 2.0
CREATION_DATE  = 
ORIGINATOR     = 

OBJECT_NAME    = HULIANWANG DIGUI-141
OBJECT_ID      = 2026-007E
CENTER_NAME    = EARTH
REF_FRAME      = TEME
TIME_SYSTEM    = UTC
MEAN_ELEMENT_THEORY = SGP/SGP4

EPOCH          = 2026-01-31T08:59:29.493024
MEAN_MOTION    = 13.84069469
ECCENTRICITY   = .0004936
INCLINATION    = 50.0045
RA_OF_ASC_NODE = 223.8864
ARG_OF_PERICENTER = 184.3108
MEAN_ANOMALY   = 175.7746

EPHEMERIS_TYPE = 0
CLASSIFICATION_TYPE = U
NORAD_CAT_ID   = 67439
ELEMENT_SET_NO = 999
REV_AT_EPOCH   = 247
BSTAR          = .16031E-3
MEAN_MOTION_DOT = .36E-6
MEAN_MOTION_DDOT = 0

CCSDS_OMM_VERS = 2.0
CREATION_DATE  = 
ORIGINATOR     = 

OBJECT_NAME    = HULIANWANG DIGUI-142
OBJECT_ID      = 2026-007F
CENTER_NAME    = EARTH
REF_FRAME      = TEME
TIME_SYSTEM    = UTC
MEAN_ELEMENT_THEORY = SGP/SGP4

EPOCH          = 2026-01-31T08:55:50.403360
MEAN_MOTION    = 13.84230682
ECCENTRICITY   = .0000265
INCLINATION    = 50.0110
RA_OF_ASC_NODE = 223.9121
ARG_OF_PERICENTER = 266.5488
MEAN_ANOMALY   = 93.5377

EPHEMERIS_TYPE = 0
CLASSIFICATION_TYPE = U
NORAD_CAT_ID   = 67440
ELEMENT_SET_NO = 999
REV_AT_EPOCH   = 247
BSTAR          = .21737E-4
MEAN_MOTION_DOT = -.12E-5
MEAN_MOTION_DDOT = 0

CCSDS_OMM_VERS = 2.0
CREATION_DATE  = 
ORIGINATOR     = 

OBJECT_NAME    = HULIANWANG DIGUI-143
OBJECT_ID      = 2026-007G
CENTER_NAME    = EARTH
REF_FRAME      = TEME
TIME_SYSTEM    = UTC
MEAN_ELEMENT_THEORY = SGP/SGP4

EPOCH          = 2026-01-31T07:08:33.178272
MEAN_MOTION    = 13.84454599
ECCENTRICITY   = .0000987
INCLINATION    = 50.0076
RA_OF_ASC_NODE = 224.1853
ARG_OF_PERICENTER = 6.0797
MEAN_ANOMALY   = 354.0111

EPHEMERIS_TYPE = 0
CLASSIFICATION_TYPE = U
NORAD_CAT_ID   = 67441
ELEMENT_SET_NO = 999
REV_AT_EPOCH   = 246
BSTAR          = .15625E-3
MEAN_MOTION_DOT = .32E-6
MEAN_MOTION_DDOT = 0

CCSDS_OMM_VERS = 2.0
CREATION_DATE  = 
ORIGINATOR     = 

OBJECT_NAME    = HULIANWANG DIGUI-144
OBJECT_ID      = 2026-007H
CENTER_NAME    = EARTH
REF_FRAME      = TEME
TIME_SYSTEM    = UTC
MEAN_ELEMENT_THEORY = SGP/SGP4

EPOCH          = 2026-01-31T03:37:33.256704
MEAN_MOTION    = 13.84621496
ECCENTRICITY   = .0000256
INCLINATION    = 50.0075
RA_OF_ASC_NODE = 224.7362
ARG_OF_PERICENTER = 333.1898
MEAN_ANOMALY   = 26.8984

EPHEMERIS_TYPE = 0
CLASSIFICATION_TYPE = U
NORAD_CAT_ID   = 67442
ELEMENT_SET_NO = 999
REV_AT_EPOCH   = 244
BSTAR          = .14321E-3
MEAN_MOTION_DOT = .18E-6
MEAN_MOTION_DDOT = 0

CCSDS_OMM_VERS = 2.0
CREATION_DATE  = 
ORIGINATOR     = 

OBJECT_NAME    = HULIANWANG DIGUI-145
OBJECT_ID      = 2026-007J
CENTER_NAME    = EARTH
REF_FRAME      = TEME
TIME_SYSTEM    = UTC
MEAN_ELEMENT_THEORY = SGP/SGP4

EPOCH          = 2026-01-31T08:45:14.271264
MEAN_MOTION    = 13.84763079
ECCENTRICITY   = .000091
INCLINATION    = 50.0089
RA_OF_ASC_NODE = 223.8640
ARG_OF_PERICENTER = 227.8160
MEAN_ANOMALY   = 132.2659

EPHEMERIS_TYPE = 0
CLASSIFICATION_TYPE = U
NORAD_CAT_ID   = 67443
ELEMENT_SET_NO = 999
REV_AT_EPOCH   = 247
BSTAR          = .16076E-3
MEAN_MOTION_DOT = .38E-6
MEAN_MOTION_DDOT = 0

CCSDS_OMM_VERS = 2.0
CREATION_DATE  = 
ORIGINATOR     = 

OBJECT_NAME    = CZ-8A R/B
OBJECT_ID      = 2026-007K
CENTER_NAME    = EARTH
REF_FRAME      = TEME
TIME_SYSTEM    = UTC
MEAN_ELEMENT_THEORY = SGP/SGP4

EPOCH          = 2026-01-31T12:05:20.556096
MEAN_MOTION    = 14.13550520
ECCENTRICITY   = .0092172
INCLINATION    = 50.0084
RA_OF_ASC_NODE = 220.5719
ARG_OF_PERICENTER = 144.3300
MEAN_ANOMALY   = 216.3814

EPHEMERIS_TYPE = 0
CLASSIFICATION_TYPE = U
NORAD_CAT_ID   = 67444
ELEMENT_SET_NO = 999
REV_AT_EPOCH   = 252
BSTAR          = .28938E-4
MEAN_MOTION_DOT = -.99E-6
MEAN_MOTION_DDOT = 0

CCSDS_OMM_VERS = 2.0
CREATION_DATE  = 
ORIGINATOR     = 

OBJECT_NAME    = STARLINK-36542
OBJECT_ID      = 2026-008A
CENTER_NAME    = EARTH
REF_FRAME      = TEME
TIME_SYSTEM    = UTC
MEAN_ELEMENT_THEORY = SGP/SGP4

EPOCH          = 2026-01-31T12:00:01.999296
MEAN_MOTION    = 15.75055129
ECCENTRICITY   = .0001351
INCLINATION    = 43.0004
RA_OF_ASC_NODE = 59.1947
ARG_OF_PERICENTER = 283.4783
MEAN_ANOMALY   = 287.0539

EPHEMERIS_TYPE = 0
CLASSIFICATION_TYPE = U
NORAD_CAT_ID   = 67445
ELEMENT_SET_NO = 999
REV_AT_EPOCH   = 381
BSTAR          = -.19005E-3
MEAN_MOTION_DOT = -.29588E-3
MEAN_MOTION_DDOT = 0

CCSDS_OMM_VERS = 2.0
CREATION_DATE  = 
ORIGINATOR     = 

OBJECT_NAME    = STARLINK-36539
OBJECT_ID      = 2026-008B
CENTER_NAME    = EARTH
REF_FRAME      = TEME
TIME_SYSTEM    = UTC
MEAN_ELEMENT_THEORY = SGP/SGP4

EPOCH          = 2026-01-31T12:00:01.999296
MEAN_MOTION    = 15.74937032
ECCENTRICITY   = .0001281
INCLINATION    = 43.0008
RA_OF_ASC_NODE = 59.1898
ARG_OF_PERICENTER = 280.4099
MEAN_ANOMALY   = 292.0597

EPHEMERIS_TYPE = 0
CLASSIFICATION_TYPE = U
NORAD_CAT_ID   = 67446
ELEMENT_SET_NO = 999
REV_AT_EPOCH   = 381
BSTAR          = .93972E-3
MEAN_MOTION_DOT = .145738E-2
MEAN_MOTION_DDOT = 0

CCSDS_OMM_VERS = 2.0
CREATION_DATE  = 
ORIGINATOR     = 

OBJECT_NAME    = STARLINK-36440
OBJECT_ID      = 2026-008C
CENTER_NAME    = EARTH
REF_FRAME      = TEME
TIME_SYSTEM    = UTC
MEAN_ELEMENT_THEORY = SGP/SGP4

EPOCH          = 2026-01-31T12:00:01.999296
MEAN_MOTION    = 15.75028080
ECCENTRICITY   = .0001425
INCLINATION    = 43.0007
RA_OF_ASC_NODE = 59.1845
ARG_OF_PERICENTER = 271.5427
MEAN_ANOMALY   = 302.8390

EPHEMERIS_TYPE = 0
CLASSIFICATION_TYPE = U
NORAD_CAT_ID   = 67447
ELEMENT_SET_NO = 999
REV_AT_EPOCH   = 381
BSTAR          = -.96596E-4
MEAN_MOTION_DOT = -.15281E-3
MEAN_MOTION_DDOT = 0

