HULIANWANG DIGUI-138    
1 67436U 26007B   26031.02002199  .00000034  00000+0  16070-3 0  9999
2 67436  50.0044 225.3672 0000447  36.4558 323.6368 13.83486548  2423
HULIANWANG DIGUI-139    
1 67437U 26007C   26031.30667561  .00000061  00000+0  18421-3 0  9993
2 67437  50.0008 224.2110 0000504 290.1254  69.9587 13.83662691  2467
HULIANWANG DIGUI-140    
1 67438U 26007D   26031.31132589  .00000052  00000+0  17736-3 0  9990
2 67438  50.0043 224.2407 0000232 315.7357  44.3520 13.83290804  2469
HULIANWANG DIGUI-141    
1 67439U 26007E   26031.37464691  .00000036  00000+0  16031-3 0  9998
2 67439  50.0045 223.8864 0004936 184.3108 175.7746 13.84069469  2475
HULIANWANG DIGUI-142    
1 67440U 26007F   26031.37211115 -.00000120  00000+0  21737-4 0  9996
2 67440  50.0110 223.9121 0000265 266.5488  93.5377 13.84230682  2476
HULIANWANG DIGUI-143    
1 67441U 26007G   26031.29760623  .00000032  00000+0  15625-3 0  9990
2 67441  50.0076 224.1853 0000987   6.0797 354.0111 13.84454599  2469
HULIANWANG DIGUI-144    
1 67442U 26007H   26031.15107936  .00000018  00000+0  14321-3 0  9994
2 67442  50.0075 224.7362 0000256 333.1898  26.8984 13.84621496  2447
HULIANWANG DIGUI-145    
1 67443U 26007J   26031.36474851  .00000038  00000+0  16076-3 0  9992
2 67443  50.0089 223.8640 0000910 227.8160 132.2659 13.84763079  2478
CZ-8A R/B               
1 67444U 26007K   26031.50371014 -.00000099  00000+0  28938-4 0  9995
2 67444  50.0084 220.5719 0092172 144.3300 216.3814 14.13550520  2526
STARLINK-36542          
1 67445U 26008A   26031.50002314 -.00029588  00000+0 -19005-3 0  9990
2 67445  43.0004  59.1947 0001351 283.4783 287.0539 15.75055129  3815
STARLINK-36539          
1 67446U 26008B   26031.50002314  .00145738  00000+0  93972-3 0  9990
2 67446  43.0008  59.1898 0001281 280.4099 292.0597 15.74937032  3815
STARLINK-36440          
1 67447U 26008C   26031.50002314 -.00015281  00000+0 -96596-4 0  9998
2 67447  43.0007  59.1845 0001425 271.5427 302.8390 15.75028080  3819
